{
    "CCSDS_OMM_VERS": "3.0",
    "COMMENT": "GENERATED VIA SPACE-TRACK.ORG API",
    "CREATION_DATE": "2025-11-24T07:26:19",
    "ORIGINATOR": "18 SPCS",
    "OBJECT_NAME": "BEIDOU 3M10",
    "OBJECT_ID": "2018-062B",
    "CENTER_NAME": "EARTH",
    "REF_FRAME": "TEME",
    "TIME_SYSTEM": "UTC",
    "MEAN_ELEMENT_THEORY": "SGP4",
    "EPOCH": "2025-11-23T20:28:42.648096",
    "MEAN_MOTION": "1.86229866",
    "ECCENTRICITY": "0.00076690",
    "INCLINATION": "54.0888",
    "RA_OF_ASC_NODE": "189.2756",
    "ARG_OF_PERICENTER": "44.5317",
    "MEAN_ANOMALY": "315.6262",
    "EPHEMERIS_TYPE": "0",
    "CLASSIFICATION_TYPE": "U",
    "NORAD_CAT_ID": "43582",
    "ELEMENT_SET_NO": "999",
    "REV_AT_EPOCH": "4981",
    "BSTAR": "0.00000000000000",
    "MEAN_MOTION_DOT": "0.00000067",
    "MEAN_MOTION_DDOT": "0.0000000000000",
    "SEMIMAJOR_AXIS": "27906.302",
    "PERIOD": "773.238",
    "APOAPSIS": "21549.568",
    "PERIAPSIS": "21506.766",
    "OBJECT_TYPE": "PAYLOAD",
    "RCS_SIZE": "LARGE",
    "COUNTRY_CODE": "PRC",
    "LAUNCH_DATE": "2018-07-29",
    "SITE": "XSC",
    "DECAY_DATE": null,
    "FILE": "4896998",
    "GP_ID": "303367320",
    "TLE_LINE0": "0 BEIDOU 3M10",
    "TLE_LINE1": "1 43582U 18062B   25327.85327139  .00000067  00000-0  00000+0 0  9998",
    "TLE_LINE2": "2 43582  54.0888 189.2756 0007669  44.5317 315.6262  1.86229866 49812"
}